ADRAS-J                 
1 58992U 24034A   24215.58323999  .00004364  00000+0  40287-3 0  9998
2 58992  98.2144 190.7319 0041969 255.6259 104.0299 14.94535279 24792
